CCSDS_OMM_VERS = 2.0
CREATION_DATE  = 
ORIGINATOR     = 

OBJECT_NAME    = STARLINK-36739
OBJECT_ID      = 2026-032F
CENTER_NAME    = EARTH
REF_FRAME      = TEME
TIME_SYSTEM    = UTC
MEAN_ELEMENT_THEORY = SGP/SGP4

EPOCH          = 2026-03-05T22:00:01.999584
MEAN_MOTION    = 15.75154978
ECCENTRICITY   = .0001571
INCLINATION    = 97.2843
RA_OF_ASC_NODE = 251.2681
ARG_OF_PERICENTER = 106.3714
MEAN_ANOMALY   = 223.0557

EPHEMERIS_TYPE = 0
CLASSIFICATION_TYPE = U
NORAD_CAT_ID   = 67802
ELEMENT_SET_NO = 999
REV_AT_EPOCH   = 417
BSTAR          = .21366319E-3
MEAN_MOTION_DOT = .3181E-3
MEAN_MOTION_DDOT = 0

CCSDS_OMM_VERS = 2.0
CREATION_DATE  = 
ORIGINATOR     = 

OBJECT_NAME    = STARLINK-36768
OBJECT_ID      = 2026-032G
CENTER_NAME    = EARTH
REF_FRAME      = TEME
TIME_SYSTEM    = UTC
MEAN_ELEMENT_THEORY = SGP/SGP4

EPOCH          = 2026-03-05T22:00:01.999584
MEAN_MOTION    = 15.75178192
ECCENTRICITY   = .00013572
INCLINATION    = 97.2843
RA_OF_ASC_NODE = 251.2377
ARG_OF_PERICENTER = 83.1433
MEAN_ANOMALY   = 176.2936

EPHEMERIS_TYPE = 0
CLASSIFICATION_TYPE = U
NORAD_CAT_ID   = 67803
ELEMENT_SET_NO = 999
REV_AT_EPOCH   = 417
BSTAR          = -.10410938E-3
MEAN_MOTION_DOT = -.15622E-3
MEAN_MOTION_DDOT = 0

CCSDS_OMM_VERS = 2.0
CREATION_DATE  = 
ORIGINATOR     = 

OBJECT_NAME    = STARLINK-36792
OBJECT_ID      = 2026-032H
CENTER_NAME    = EARTH
REF_FRAME      = TEME
TIME_SYSTEM    = UTC
MEAN_ELEMENT_THEORY = SGP/SGP4

EPOCH          = 2026-03-05T22:29:10.978368
MEAN_MOTION    = 15.75231649
ECCENTRICITY   = .00013766
INCLINATION    = 97.2844
RA_OF_ASC_NODE = 251.2537
ARG_OF_PERICENTER = 84.3978
MEAN_ANOMALY   = 275.7445

EPHEMERIS_TYPE = 0
CLASSIFICATION_TYPE = U
NORAD_CAT_ID   = 67804
ELEMENT_SET_NO = 999
REV_AT_EPOCH   = 419
BSTAR          = .99843649E-3
MEAN_MOTION_DOT = .151741E-2
MEAN_MOTION_DDOT = 0

CCSDS_OMM_VERS = 2.0
CREATION_DATE  = 
ORIGINATOR     = 

OBJECT_NAME    = STARLINK-36782
OBJECT_ID      = 2026-032J
CENTER_NAME    = EARTH
REF_FRAME      = TEME
TIME_SYSTEM    = UTC
MEAN_ELEMENT_THEORY = SGP/SGP4

EPOCH          = 2026-03-05T23:30:54.552384
MEAN_MOTION    = 15.80879256
ECCENTRICITY   = .00025108
INCLINATION    = 97.2826
RA_OF_ASC_NODE = 251.3486
ARG_OF_PERICENTER = 71.4121
MEAN_ANOMALY   = 288.7420

EPHEMERIS_TYPE = 0
CLASSIFICATION_TYPE = U
NORAD_CAT_ID   = 67805
ELEMENT_SET_NO = 999
REV_AT_EPOCH   = 420
BSTAR          = .10413182E-2
MEAN_MOTION_DOT = .204674E-2
MEAN_MOTION_DDOT = 0

CCSDS_OMM_VERS = 2.0
CREATION_DATE  = 
ORIGINATOR     = 

OBJECT_NAME    = STARLINK-36389
OBJECT_ID      = 2026-032K
CENTER_NAME    = EARTH
REF_FRAME      = TEME
TIME_SYSTEM    = UTC
MEAN_ELEMENT_THEORY = SGP/SGP4

EPOCH          = 2026-03-05T22:00:01.999584
MEAN_MOTION    = 15.75111244
ECCENTRICITY   = .00016094
INCLINATION    = 97.2837
RA_OF_ASC_NODE = 251.2599
ARG_OF_PERICENTER = 88.8135
MEAN_ANOMALY   = 220.6259

EPHEMERIS_TYPE = 0
CLASSIFICATION_TYPE = U
NORAD_CAT_ID   = 67806
ELEMENT_SET_NO = 999
REV_AT_EPOCH   = 417
BSTAR          = .10546429E-2
MEAN_MOTION_DOT = .159608E-2
MEAN_MOTION_DDOT = 0

CCSDS_OMM_VERS = 2.0
CREATION_DATE  = 
ORIGINATOR     = 

OBJECT_NAME    = STARLINK-36382
OBJECT_ID      = 2026-032L
CENTER_NAME    = EARTH
REF_FRAME      = TEME
TIME_SYSTEM    = UTC
MEAN_ELEMENT_THEORY = SGP/SGP4

EPOCH          = 2026-03-05T22:00:01.999584
MEAN_MOTION    = 15.75213157
ECCENTRICITY   = .00015603
INCLINATION    = 97.2838
RA_OF_ASC_NODE = 251.2632
ARG_OF_PERICENTER = 108.4376
MEAN_ANOMALY   = 212.9852

EPHEMERIS_TYPE = 0
CLASSIFICATION_TYPE = U
NORAD_CAT_ID   = 67807
ELEMENT_SET_NO = 999
REV_AT_EPOCH   = 411
BSTAR          = -.50132311E-3
MEAN_MOTION_DOT = -.74335E-3
MEAN_MOTION_DDOT = 0

CCSDS_OMM_VERS = 2.0
CREATION_DATE  = 
ORIGINATOR     = 

OBJECT_NAME    = STARLINK-36811
OBJECT_ID      = 2026-032M
CENTER_NAME    = EARTH
REF_FRAME      = TEME
TIME_SYSTEM    = UTC
MEAN_ELEMENT_THEORY = SGP/SGP4

EPOCH          = 2026-03-05T22:00:01.999584
MEAN_MOTION    = 15.77399873
ECCENTRICITY   = .00016817
INCLINATION    = 97.2841
RA_OF_ASC_NODE = 251.2874
ARG_OF_PERICENTER = 80.0197
MEAN_ANOMALY   = 295.2305

EPHEMERIS_TYPE = 0
CLASSIFICATION_TYPE = U
NORAD_CAT_ID   = 67808
ELEMENT_SET_NO = 999
REV_AT_EPOCH   = 417
BSTAR          = -.12434248E-1
MEAN_MOTION_DOT = -.1796708E-1
MEAN_MOTION_DDOT = 0

CCSDS_OMM_VERS = 2.0
CREATION_DATE  = 
ORIGINATOR     = 

OBJECT_NAME    = STARLINK-36795
OBJECT_ID      = 2026-032N
CENTER_NAME    = EARTH
REF_FRAME      = TEME
TIME_SYSTEM    = UTC
MEAN_ELEMENT_THEORY = SGP/SGP4

EPOCH          = 2026-03-05T22:20:01.931424
MEAN_MOTION    = 15.75267664
ECCENTRICITY   = .00014532
INCLINATION    = 97.2837
RA_OF_ASC_NODE = 251.2614
ARG_OF_PERICENTER = 53.9416
MEAN_ANOMALY   = 306.1984

EPHEMERIS_TYPE = 0
CLASSIFICATION_TYPE = U
NORAD_CAT_ID   = 67809
ELEMENT_SET_NO = 999
REV_AT_EPOCH   = 419
BSTAR          = .14281847E-2
MEAN_MOTION_DOT = .219186E-2
MEAN_MOTION_DDOT = 0

CCSDS_OMM_VERS = 2.0
CREATION_DATE  = 
ORIGINATOR     = 

OBJECT_NAME    = STARLINK-36807
OBJECT_ID      = 2026-032P
CENTER_NAME    = EARTH
REF_FRAME      = TEME
TIME_SYSTEM    = UTC
MEAN_ELEMENT_THEORY = SGP/SGP4

EPOCH          = 2026-03-05T22:00:01.999584
MEAN_MOTION    = 15.75103536
ECCENTRICITY   = .00019516
INCLINATION    = 97.2843
RA_OF_ASC_NODE = 251.2849
ARG_OF_PERICENTER = 95.6669
MEAN_ANOMALY   = 275.7716

EPHEMERIS_TYPE = 0
CLASSIFICATION_TYPE = U
NORAD_CAT_ID   = 67810
ELEMENT_SET_NO = 999
REV_AT_EPOCH   = 417
BSTAR          = .14431498E-2
MEAN_MOTION_DOT = .219942E-2
MEAN_MOTION_DDOT = 0

CCSDS_OMM_VERS = 2.0
CREATION_DATE  = 
ORIGINATOR     = 

OBJECT_NAME    = STARLINK-36733
OBJECT_ID      = 2026-032Q
CENTER_NAME    = EARTH
REF_FRAME      = TEME
TIME_SYSTEM    = UTC
MEAN_ELEMENT_THEORY = SGP/SGP4

EPOCH          = 2026-03-05T23:21:23.216832
MEAN_MOTION    = 15.80875824
ECCENTRICITY   = .0003848
INCLINATION    = 97.2819
RA_OF_ASC_NODE = 251.3561
ARG_OF_PERICENTER = 63.5041
MEAN_ANOMALY   = 296.6622

EPHEMERIS_TYPE = 0
CLASSIFICATION_TYPE = U
NORAD_CAT_ID   = 67811
ELEMENT_SET_NO = 999
REV_AT_EPOCH   = 420
BSTAR          = .118769E-2
MEAN_MOTION_DOT = .234268E-2
MEAN_MOTION_DDOT = 0

CCSDS_OMM_VERS = 2.0
CREATION_DATE  = 
ORIGINATOR     = 

OBJECT_NAME    = STARLINK-36377
OBJECT_ID      = 2026-032R
CENTER_NAME    = EARTH
REF_FRAME      = TEME
TIME_SYSTEM    = UTC
MEAN_ELEMENT_THEORY = SGP/SGP4

EPOCH          = 2026-03-05T23:16:48.721440
MEAN_MOTION    = 15.80839211
ECCENTRICITY   = .00017008
INCLINATION    = 97.2824
RA_OF_ASC_NODE = 251.3605
ARG_OF_PERICENTER = 97.3061
MEAN_ANOMALY   = 262.8400

EPHEMERIS_TYPE = 0
CLASSIFICATION_TYPE = U
NORAD_CAT_ID   = 67812
ELEMENT_SET_NO = 999
REV_AT_EPOCH   = 420
BSTAR          = .36883822E-3
MEAN_MOTION_DOT = .71164E-3
MEAN_MOTION_DDOT = 0

CCSDS_OMM_VERS = 2.0
CREATION_DATE  = 
ORIGINATOR     = 

OBJECT_NAME    = STARLINK-36732
OBJECT_ID      = 2026-032S
CENTER_NAME    = EARTH
REF_FRAME      = TEME
TIME_SYSTEM    = UTC
MEAN_ELEMENT_THEORY = SGP/SGP4

EPOCH          = 2026-03-05T17:14:00.830688
MEAN_MOTION    = 15.79562466
ECCENTRICITY   = .00031444
INCLINATION    = 97.2825
RA_OF_ASC_NODE = 251.0897
ARG_OF_PERICENTER = 57.3673
MEAN_ANOMALY   = 302.7897

EPHEMERIS_TYPE = 0
CLASSIFICATION_TYPE = U
NORAD_CAT_ID   = 67813
ELEMENT_SET_NO = 999
REV_AT_EPOCH   = 416
BSTAR          = -.12979022E-2
MEAN_MOTION_DOT = -.229017E-2
MEAN_MOTION_DDOT = 0

